{
  "type": "FeatureCollection",
  "features": [
    {
      "type": "Feature",
      "properties": {
        "norad_id": 58701,
        "name": "TIANMU-1 16",
        "group": "weather",
        "lat": 29.140889731511088,
        "lon": 164.03498836068562,
        "alt_km": 491.4125286688495,
        "timestamp": "2025-12-13T08:49:15.337132+00:00",
        "meta_object_name": "TIANMU-1 16",
        "meta_object_id": "2024-004B",
        "meta_epoch": "2025-12-13T00:48:55.992960",
        "meta_mean_motion": 15.24439832,
        "meta_eccentricity": 0.0004441,
        "meta_inclination": 97.4571,
        "meta_ra_of_asc_node": 167.8909,
        "meta_arg_of_pericenter": 295.5854,
        "meta_mean_anomaly": 64.4924,
        "meta_ephemeris_type": 0,
        "meta_classification_type": "U",
        "meta_norad_cat_id": 58701,
        "meta_element_set_no": 999,
        "meta_rev_at_epoch": 10739,
        "meta_bstar": 0.00039445321,
        "meta_mean_motion_dot": 9.614e-05,
        "meta_mean_motion_ddot": 0,
        "tle_line1": "1 58701U 24004B   25347.03398140  .00009614  00000+0  39445-3 0  9997",
        "tle_line2": "2 58701  97.4571 167.8909 0004441 295.5854  64.4924 15.24439832107397"
      },
      "geometry": {
        "type": "Point",
        "coordinates": [
          164.03498836068562,
          29.140889731511088
        ]
      }
    },
    {
      "type": "Feature",
      "properties": {
        "norad_id": 58702,
        "name": "TIANMU-1 17",
        "group": "weather",
        "lat": 64.8281906359527,
        "lon": 4.823777934018111,
        "alt_km": 488.5394658232299,
        "timestamp": "2025-12-13T08:49:15.337143+00:00",
        "meta_object_name": "TIANMU-1 17",
        "meta_object_id": "2024-004C",
        "meta_epoch": "2025-12-13T00:26:44.328768",
        "meta_mean_motion": 15.24482902,
        "meta_eccentricity": 0.00036718,
        "meta_inclination": 97.4604,
        "meta_ra_of_asc_node": 168.2858,
        "meta_arg_of_pericenter": 299.1956,
        "meta_mean_anomaly": 60.8914,
        "meta_ephemeris_type": 0,
        "meta_classification_type": "U",
        "meta_norad_cat_id": 58702,
        "meta_element_set_no": 999,
        "meta_rev_at_epoch": 10738,
        "meta_bstar": 0.00038356317,
        "meta_mean_motion_dot": 9.358e-05,
        "meta_mean_motion_ddot": 0,
        "tle_line1": "1 58702U 24004C   25347.01856862  .00009358  00000+0  38356-3 0  9991",
        "tle_line2": "2 58702  97.4604 168.2858 0003671 299.1956  60.8914 15.24482902107384"
      },
      "geometry": {
        "type": "Point",
        "coordinates": [
          4.823777934018111,
          64.8281906359527
        ]
      }
    },
    {
      "type": "Feature",
      "properties": {
        "norad_id": 58703,
        "name": "TIANMU-1 18",
        "group": "weather",
        "lat": -25.396173467502546,
        "lon": -14.738946691021077,
        "alt_km": 498.170076564651,
        "timestamp": "2025-12-13T08:49:15.337154+00:00",
        "meta_object_name": "TIANMU-1 18",
        "meta_object_id": "2024-004D",
        "meta_epoch": "2025-12-13T00:02:42.963360",
        "meta_mean_motion": 15.24469834,
        "meta_eccentricity": 0.00030319,
        "meta_inclination": 97.4622,
        "meta_ra_of_asc_node": 168.4646,
        "meta_arg_of_pericenter": 299.5326,
        "meta_mean_anomaly": 60.5609,
        "meta_ephemeris_type": 0,
        "meta_classification_type": "U",
        "meta_norad_cat_id": 58703,
        "meta_element_set_no": 999,
        "meta_rev_at_epoch": 10738,
        "meta_bstar": 0.00040172409,
        "meta_mean_motion_dot": 9.8e-05,
        "meta_mean_motion_ddot": 0,
        "tle_line1": "1 58703U 24004D   25347.00188615  .00009800  00000+0  40172-3 0  9996",
        "tle_line2": "2 58703  97.4622 168.4646 0003031 299.5326  60.5609 15.24469834107384"
      },
      "geometry": {
        "type": "Point",
        "coordinates": [
          -14.738946691021077,
          -25.396173467502546
        ]
      }
    },
    {
      "type": "Feature",
      "properties": {
        "norad_id": 58990,
        "name": "INSAT-3DS",
        "group": "weather",
        "lat": -0.013208705987422433,
        "lon": -63.3013911815181,
        "alt_km": 35781.27453782448,
        "timestamp": "2025-12-13T08:49:15.337168+00:00",
        "meta_object_name": "INSAT-3DS",
        "meta_object_id": "2024-033A",
        "meta_epoch": "2025-12-12T22:25:54.822720",
        "meta_mean_motion": 1.00272576,
        "meta_eccentricity": 0.00012984,
        "meta_inclination": 0.0412,
        "meta_ra_of_asc_node": 135.3401,
        "meta_arg_of_pericenter": 128.3741,
        "meta_mean_anomaly": 236.7203,
        "meta_ephemeris_type": 0,
        "meta_classification_type": "U",
        "meta_norad_cat_id": 58990,
        "meta_element_set_no": 999,
        "meta_rev_at_epoch": 4520,
        "meta_bstar": 0,
        "meta_mean_motion_dot": -1.43e-06,
        "meta_mean_motion_ddot": 0,
        "tle_line1": "1 58990U 24033A   25346.93466230 -.00000143  00000+0  00000+0 0  9993",
        "tle_line2": "2 58990   0.0412 135.3401 0001298 128.3741 236.7203  1.00272576 45207"
      },
      "geometry": {
        "type": "Point",
        "coordinates": [
          -63.3013911815181,
          -0.013208705987422433
        ]
      }
    },
    {
      "type": "Feature",
      "properties": {
        "norad_id": 59051,
        "name": "METEOR-M2 4",
        "group": "weather",
        "lat": 29.493069764534376,
        "lon": 129.2212716691765,
        "alt_km": 820.2556976193318,
        "timestamp": "2025-12-13T08:49:15.337179+00:00",
        "meta_object_name": "METEOR-M2 4",
        "meta_object_id": "2024-039A",
        "meta_epoch": "2025-12-12T23:40:36.597216",
        "meta_mean_motion": 14.22401341,
        "meta_eccentricity": 0.00070253,
        "meta_inclination": 98.6766,
        "meta_ra_of_asc_node": 303.8915,
        "meta_arg_of_pericenter": 357.7946,
        "meta_mean_anomaly": 2.3199,
        "meta_ephemeris_type": 0,
        "meta_classification_type": "U",
        "meta_norad_cat_id": 59051,
        "meta_element_set_no": 999,
        "meta_rev_at_epoch": 9279,
        "meta_bstar": 5.2326921e-05,
        "meta_mean_motion_dot": 7.3e-07,
        "meta_mean_motion_ddot": 0,
        "tle_line1": "1 59051U 24039A   25346.98653469  .00000073  00000+0  52327-4 0  9990",
        "tle_line2": "2 59051  98.6766 303.8915 0007025 357.7946   2.3199 14.22401341 92791"
      },
      "geometry": {
        "type": "Point",
        "coordinates": [
          129.2212716691765,
          29.493069764534376
        ]
      }
    },
    {
      "type": "Feature",
      "properties": {
        "norad_id": 60133,
        "name": "GOES 19",
        "group": "weather",
        "lat": -0.00038616221615434926,
        "lon": 139.41577995216872,
        "alt_km": 35791.68182524019,
        "timestamp": "2025-12-13T08:49:15.337190+00:00",
        "meta_object_name": "GOES 19",
        "meta_object_id": "2024-119A",
        "meta_epoch": "2025-12-12T21:40:59.127168",
        "meta_mean_motion": 1.00270797,
        "meta_eccentricity": 0.00012583,
        "meta_inclination": 0.0176,
        "meta_ra_of_asc_node": 158.8033,
        "meta_arg_of_pericenter": 156.363,
        "meta_mean_anomaly": 16.7348,
        "meta_ephemeris_type": 0,
        "meta_classification_type": "U",
        "meta_norad_cat_id": 60133,
        "meta_element_set_no": 999,
        "meta_rev_at_epoch": 509,
        "meta_bstar": 0,
        "meta_mean_motion_dot": -2.36e-06,
        "meta_mean_motion_ddot": 0,
        "tle_line1": "1 60133U 24119A   25346.90346212 -.00000236  00000+0  00000+0 0  9997",
        "tle_line2": "2 60133   0.0176 158.8033 0001258 156.3630  16.7348  1.00270797  5093"
      },
      "geometry": {
        "type": "Point",
        "coordinates": [
          139.41577995216872,
          -0.00038616221615434926
        ]
      }
    },
    {
      "type": "Feature",
      "properties": {
        "norad_id": 65815,
        "name": "FENGYUN 3H",
        "group": "weather",
        "lat": 22.875504508614934,
        "lon": -76.74185583814419,
        "alt_km": 825.0597746624044,
        "timestamp": "2025-12-13T08:49:15.337201+00:00",
        "meta_object_name": "FENGYUN 3H",
        "meta_object_id": "2025-219A",
        "meta_epoch": "2025-12-12T22:33:53.882208",
        "meta_mean_motion": 14.19904782,
        "meta_eccentricity": 6.132e-05,
        "meta_inclination": 98.6584,
        "meta_ra_of_asc_node": 286.5262,
        "meta_arg_of_pericenter": 93.0847,
        "meta_mean_anomaly": 267.04,
        "meta_ephemeris_type": 0,
        "meta_classification_type": "U",
        "meta_norad_cat_id": 65815,
        "meta_element_set_no": 999,
        "meta_rev_at_epoch": 1095,
        "meta_bstar": 9.7643999e-05,
        "meta_mean_motion_dot": 1.64e-06,
        "meta_mean_motion_ddot": 0,
        "tle_line1": "1 65815U 25219A   25346.94020697  .00000164  00000+0  97644-4 0  9995",
        "tle_line2": "2 65815  98.6584 286.5262 0000613  93.0847 267.0400 14.19904782 10958"
      },
      "geometry": {
        "type": "Point",
        "coordinates": [
          -76.74185583814419,
          22.875504508614934
        ]
      }
    }
  ]
}